NORAD_CAT_ID,TLE_LINE0,TLE_LINE1,TLE_LINE2,CREATION_DATE,OBJECT_NAME,OBJECT_ID,EPOCH,MEAN_MOTION,ECCENTRICITY,INCLINATION,RA_OF_ASC_NODE,ARG_OF_PERICENTER,MEAN_ANOMALY,REV_AT_EPOCH,BSTAR,MEAN_MOTION_DOT,MEAN_MOTION_DDOT,SEMIMAJOR_AXIS,PERIOD,APOAPSIS,PERIAPSIS,OBJECT_TYPE,COUNTRY_CODE,LAUNCH_DATE,SITE,DECAY_DATE,LAUNCH_YEAR,LAUNCH_SEQ,EPOCH_FINAL,ORBIT_CLASS,EVENT,DURATION,RCS_SIZE
1099,0 THOR ABLESTAR DEB,1 01099U 64083G   25193.42471183  .00000140  00000-0  16627-3 0  9990,2 01099  89.8305 144.3061 0038111 204.1899 276.5321 13.62700416936138,12/07/2025 17:51,THOR ABLESTAR DEB,1964-083G,12/07/2025 10:11,13.62700416,0.0038111,89.8305,144.3061,204.1899,276.5321,93613,0.00016627,1.4e-06,0.0,7404.031,105.673,1054.114,997.679,DEBRIS,US,13/12/1964,AFWTR,,1964,83,12/07/2025 20:23,LEO,0,22127,SMALL
1100,0 COSMOS 57 DEB,1 01100U 65012  C 65061.91463922  .09143209 +1064303 +00000-0 0  9994,2 01100 064.8523 269.0466 0179321 047.9362 313.6205 16.03366401001370,15/08/2004 23:35,COSMOS 57 DEB,1965-012C,02/03/1965 21:57,16.03366401,0.0179321,64.8523,269.0466,47.9362,313.6205,137,0.0,0.09143209,106.43,6643.244,89.811,384.237,145.982,DEBRIS,CIS,10/02/1965,PKMTR,09/03/1965,1965,12,03/03/1965 19:54,LEO,1,27,SMALL
1101,0 COSMOS 57 DEB,1 01101U 65012  D 65054.37873243  .02655395 +15979-1 +00000-0 0  9991,2 01101 064.9779 296.4382 0186652 067.4264 294.5541 15.97669598000171,15/08/2004 23:35,COSMOS 57 DEB,1965-012D,23/02/1965 09:05,15.97669598,0.0186652,64.9779,296.4382,67.4264,294.5541,17,0.0,0.02655395,0.015979,6659.027,90.131,405.184,156.6,DEBRIS,CIS,12/02/1965,PKMTR,02/03/1965,1965,12,23/02/1965 18:10,LEO,1,18,SMALL
1102,0 COSMOS 57 DEB,1 01102U 65012  E 65056.17547223  .00534428 +90417-3 +00000-0 0  9991,2 01102 064.7486 288.6337 0031487 034.4821 325.7217 16.42604166000477,15/08/2004 23:35,COSMOS 57 DEB,1965-012E,25/02/1965 04:12,16.42604166,0.0031487,64.7486,288.6337,34.4821,325.7217,47,0.0,0.00534428,0.00090417,6537.025,87.665,179.473,138.307,DEBRIS,CIS,14/02/1965,PKMTR,26/02/1965,1965,12,25/02/1965 08:25,LEO,1,12,SMALL
1103,0 COSMOS 57 DEB,1 01103U 65012  F 65056.14027475  .00450031 +64613-3 +00000-0 0  9997,2 01103 064.6042 289.2571 0037740 032.8844 327.4137 16.29909777000467,15/08/2004 23:35,COSMOS 57 DEB,1965-012F,25/02/1965 03:21,16.29909777,0.003774,64.6042,289.2571,32.8844,327.4137,46,0.0,0.00450031,0.00064613,6570.923,88.348,217.587,167.989,DEBRIS,CIS,16/02/1965,PKMTR,02/03/1965,1965,12,25/02/1965 06:43,LEO,1,14,SMALL
1104,0 COSMOS 57 DEB,1 01104U 65012  G 65062.90004418  .01036636 +22072-2 +00000-0 0  9995,2 01104 064.7321 265.8824 0224472 057.6703 304.4836 15.89071032001527,15/08/2004 23:35,COSMOS 57 DEB,1965-012G,03/03/1965 21:36,15.89071032,0.0224472,64.7321,265.8824,57.6703,304.4836,152,0.0,0.01036636,0.0022072,6683.027,90.618,454.907,154.877,DEBRIS,CIS,18/02/1965,PKMTR,10/03/1965,1965,12,04/03/1965 19:12,LEO,1,20,SMALL
1105,0 COSMOS 57 DEB,1 01105U 65012  H 65056.71874235  .00082147 +21355-4 +00000-0 0  9992,2 01105 064.8907 287.3572 0050640 313.0549 046.5803 16.43135671000561,15/08/2004 23:35,COSMOS 57 DEB,1965-012H,25/02/1965 17:14,16.43135671,0.005064,64.8907,287.3572,313.0549,46.5803,56,0.0,0.00082147,2.14e-05,6535.615,87.637,190.576,124.384,DEBRIS,CIS,20/02/1965,PKMTR,26/02/1965,1965,12,26/02/1965 10:29,LEO,1,6,SMALL
1106,0 COSMOS 57 DEB,1 01106U 65012  J 65056.16579865  .00485716 +75362-3 +00000-0 0  9998,2 01106 064.7373 289.2383 0043525 025.6563 334.6349 16.27835916000461,15/08/2004 23:35,COSMOS 57 DEB,1965-012J,25/02/1965 03:58,16.27835916,0.0043525,64.7373,289.2383,25.6563,334.6349,46,0.0,0.00485716,0.00075362,6576.503,88.461,226.992,169.743,DEBRIS,CIS,22/02/1965,PKMTR,02/03/1965,1965,12,25/02/1965 07:57,LEO,1,8,SMALL
1107,0 COSMOS 57 DEB,1 01107U 65012  K 65056.13999747  .00587072 +10935-2 +00000-0 0  9993,2 01107 064.7472 289.1279 0076650 047.3313 313.3573 16.38768401000463,15/08/2004 23:35,COSMOS 57 DEB,1965-012K,25/02/1965 03:21,16.38768401,0.007665,64.7472,289.1279,47.3313,313.3573,46,0.0,0.00587072,0.0010935,6547.221,87.87,219.271,118.902,DEBRIS,CIS,24/02/1965,PKMTR,25/02/1965,1965,12,25/02/1965 06:43,LEO,1,1,SMALL
1108,0 COSMOS 57 DEB,1 01108U 65012  L 65056.16253682  .00209070 +13640-3 +00000-0 0  9994,2 01108 064.7042 289.9591 0068884 087.5945 273.1939 16.18898871000461,15/08/2004 23:35,COSMOS 57 DEB,1965-012L,25/02/1965 03:54,16.18898871,0.0068884,64.7042,289.9591,87.5945,273.1939,46,0.0,0.0020907,0.0001364,6600.684,88.949,268.017,177.081,DEBRIS,CIS,26/02/1965,PKMTR,01/03/1965,1965,12,25/02/1965 07:48,LEO,1,3,SMALL
1109,0 COSMOS 57 DEB,1 01109U 65012  M 65056.13811540  .00062100 +12184-4 +00000-0 0  9999,2 01109 064.7466 289.6429 0011889 212.0655 147.9744 16.45801700000462,15/08/2004 23:35,COSMOS 57 DEB,1965-012M,25/02/1965 03:18,16.458017,0.0011889,64.7466,289.6429,212.0655,147.9744,46,0.0,0.000621,1.22e-05,6528.555,87.495,158.182,142.658,DEBRIS,CIS,03/02/1965,PKMTR,26/02/1965,1965,12,25/02/1965 06:37,LEO,1,23,SMALL
1110,0 COSMOS 57 DEB,1 01110U 65012  N 65057.64563011  .00645620 +13249-2 +00000-0 0  9990,2 01110 064.6989 283.7477 0053602 031.8036 328.5191 16.36044235000702,15/08/2004 23:35,COSMOS 57 DEB,1965-012N,26/02/1965 15:29,16.36044235,0.0053602,64.6989,283.7477,31.8036,328.5191,70,0.0,0.0064562,0.0013249,6554.487,88.017,211.486,141.219,DEBRIS,CIS,21/12/1964,PKMTR,27/02/1965,1965,12,27/02/1965 06:59,LEO,1,68,SMALL
1111,0 COSMOS 57 DEB,1 01111U 65012  P 65056.61107298  .02366321 +15922-1 +00000-0 0  9997,2 01111 064.9504 287.8621 0119298 086.1082 275.2588 16.13609517000313,15/08/2004 23:35,COSMOS 57 DEB,1965-012P,25/02/1965 14:39,16.13609517,0.0119298,64.9504,287.8621,86.1082,275.2588,31,0.0,0.02366321,0.015922,6615.101,89.24,315.882,158.049,DEBRIS,CIS,15/01/1965,PKMTR,02/03/1965,1965,12,26/02/1965 05:19,LEO,1,46,SMALL
1112,0 COSMOS 57 DEB,1 01112U 65012  Q 65057.04243276  .00000000 +00000-0 +00000-0 0  9990,2 01112 064.5966 286.5781 0104039 358.8222 001.2583 16.35125120000619,15/08/2004 23:35,COSMOS 57 DEB,1965-012Q,26/02/1965 01:01,16.3512512,0.0104039,64.5966,286.5781,358.8222,1.2583,61,0.0,0.0,0.0,6556.943,88.066,247.026,110.59,DEBRIS,CIS,05/12/1964,PKMTR,01/03/1965,1965,12,26/02/1965 02:02,LEO,1,86,SMALL
1113,0 COSMOS 57 DEB,1 01113U 65012  R 65055.10651516  .06442099 +13245-0 +00000-0 0  9995,2 01113 064.6416 294.8810 0050249 138.0044 222.3818 16.29685095000295,15/08/2004 23:35,COSMOS 57 DEB,1965-012R,24/02/1965 02:33,16.29685095,0.0050249,64.6416,294.881,138.0044,222.3818,29,0.0,0.06442099,0.13245,6571.527,88.36,226.413,160.371,DEBRIS,CIS,11/01/1965,PKMTR,25/02/1965,1965,12,24/02/1965 05:06,LEO,1,45,SMALL
1114,0 COSMOS 57 DEB,1 01114U 65012  S 65057.25280735  .00275114 +24108-3 +00000-0 0  9994,2 01114 064.6696 285.5423 0120884 042.5596 318.4251 16.32516493000643,15/08/2004 23:35,COSMOS 57 DEB,1965-012S,26/02/1965 06:04,16.32516493,0.0120884,64.6696,285.5423,42.5596,318.4251,64,0.0,0.00275114,0.00024108,6563.926,88.207,265.139,106.444,DEBRIS,CIS,27/12/1964,PKMTR,03/03/1965,1965,12,26/02/1965 12:08,LEO,1,66,SMALL
1115,0 COSMOS 57 DEB,1 01115U 65012  T 65055.68125983  .06364406 +11651-0 +00000-0 0  9998,2 01115 064.8316 291.5598 0157937 046.9279 314.3835 16.14272044000385,15/08/2004 23:35,COSMOS 57 DEB,1965-012T,24/02/1965 16:21,16.14272044,0.0157937,64.8316,291.5598,46.9279,314.3835,38,0.0,0.06364406,0.11651,6613.291,89.204,339.604,130.707,DEBRIS,CIS,06/12/1964,PKMTR,27/02/1965,1965,12,25/02/1965 08:42,LEO,1,83,SMALL
1116,0 COSMOS 57 DEB,1 01116U 65012  U 65056.61672755  .00615269 +10560-2 +00000-0 0  9997,2 01116 064.7281 287.8547 0148265 049.4723 311.8098 16.12442850000536,15/08/2004 23:35,COSMOS 57 DEB,1965-012U,25/02/1965 14:48,16.1244285,0.0148265,64.7281,287.8547,49.4723,311.8098,53,0.0,0.00615269,0.001056,6618.291,89.305,338.282,142.03,DEBRIS,CIS,26/12/1964,PKMTR,04/03/1965,1965,12,26/02/1965 05:36,LEO,1,68,SMALL
1117,0 COSMOS 57 DEB,1 01117U 65012  V 65056.16381786  .00321818 +31113-3 +00000-0 0  9991,2 01117 064.7849 290.1919 0103983 123.3367 237.6630 16.16809464000462,15/08/2004 23:35,COSMOS 57 DEB,1965-012V,25/02/1965 03:55,16.16809464,0.0103983,64.7849,290.1919,123.3367,237.663,46,0.0,0.00321818,0.00031113,6606.369,89.064,296.929,159.539,DEBRIS,CIS,09/12/1964,PKMTR,01/03/1965,1965,12,25/02/1965 07:51,LEO,1,82,SMALL
1118,0 COSMOS 57 DEB,1 01118U 65012  W 65058.17879770  .00263631 +22224-3 +00000-0 0  9991,2 01118 064.9491 282.1581 0083593 020.8726 339.4665 16.26152010000792,15/08/2004 23:35,COSMOS 57 DEB,1965-012W,27/02/1965 04:17,16.2615201,0.0083593,64.9491,282.1581,20.8726,339.4665,79,0.0,0.00263631,0.00022224,6581.042,88.552,257.92,147.894,DEBRIS,CIS,07/01/1965,PKMTR,01/03/1965,1965,12,27/02/1965 08:34,LEO,1,53,SMALL
1119,0 COSMOS 57 DEB,1 01119U 65012  X 65057.69582650  .00442028 +62587-3 +00000-0 0  9991,2 01119 064.7326 283.8447 0118022 036.3402 324.4555 16.23358614000715,15/08/2004 23:35,COSMOS 57 DEB,1965-012X,26/02/1965 16:41,16.23358614,0.0118022,64.7326,283.8447,36.3402,324.4555,71,0.0,0.00442028,0.00062587,6588.589,88.704,288.214,132.694,DEBRIS,CIS,28/01/1965,PKMTR,01/03/1965,1965,12,27/02/1965 09:23,LEO,1,32,SMALL
1120,0 COSMOS 57 DEB,1 01120U 65012  Y 65058.17441343  .00289374 +21154-3 +00000-0 0  9998,2 01120 064.7380 282.4850 0089094 077.7384 283.2578 16.05898968000789,15/08/2004 23:35,COSMOS 57 DEB,1965-012Y,27/02/1965 04:11,16.05898968,0.0089094,64.738,282.485,77.7384,283.2578,78,0.0,0.00289374,0.00021154,6636.258,89.669,317.248,198.998,DEBRIS,CIS,12/12/1964,PKMTR,02/03/1965,1965,12,27/02/1965 08:22,LEO,1,80,SMALL
1121,0 COSMOS 57 DEB,1 01121U 65012  Z 65058.18924712  .00533986 +91153-3 +00000-0 0  9993,2 01121 065.1980 281.4683 0023055 047.1043 313.1310 16.26590457000795,15/08/2004 23:35,COSMOS 57 DEB,1965-012Z,27/02/1965 04:32,16.26590457,0.0023055,65.198,281.4683,47.1043,313.131,79,0.0,0.00533986,0.00091153,6579.859,88.528,216.894,186.554,DEBRIS,CIS,27/12/1964,PKMTR,01/03/1965,1965,12,27/02/1965 09:05,LEO,1,64,SMALL
